ONEWEB-0094             
1 45450U 20020AC  25351.63955257 -.00000012  00000+0 -64820-4 0  9998
2 45450  87.9117  41.9330 0001894  96.0055 264.1292 13.17646954282408
ONEWEB-0087             
1 45451U 20020AD  25351.59753836 -.00000481  00000+0 -13926-2 0  9992
2 45451  87.8872  57.1762 0002040 100.2053 259.9305 13.11415481278780
ONEWEB-0082             
1 45452U 20020AE  25351.59427767 -.00000448  00000+0 -12991-2 0  9998
2 45452  87.8871  57.2019 0001991 100.1788 259.9565 13.11413892278876
ONEWEB-0050             
1 45453U 20020AF  25351.27550502  .00002629  00000+0  27347-3 0  9991
2 45453  88.9241 258.0240 0000397 294.7842  65.3345 14.89580770313294
ONEWEB-0034             
1 45454U 20020AG  25351.61548137 -.00000153  00000+0 -46668-3 0  9990
2 45454  87.8860  57.2111 0001774 101.8699 258.2628 13.11418120278799
ONEWEB-0060             
1 45455U 20020AH  25351.58664968 -.00000166  00000+0 -50314-3 0  9995
2 45455  87.8848  57.2337 0002750  93.1408 267.0035 13.11416521278740
ONEWEB-0086             
1 45456U 20020AJ  25351.56547632  .00000592  00000+0  16341-2 0  9994
2 45456  87.8860  57.2179 0002142  83.0147 277.1225 13.11417653278809
ONEWEB-0088             
1 45457U 20020AK  25351.61972456  .00000021  00000+0  23413-4 0  9994
2 45457  87.8874  57.1632 0001870 110.9744 249.1584 13.11414846278749
